{
"type": "FeatureCollection",
"name": "rieti_provincia_2025",
"crs": { "type": "name", "properties": { "name": "urn:ogc:def:crs:OGC:1.3:CRS84" } },
"xy_coordinate_resolution": 0.0001,
"features": [
{ "type": "Feature", "properties": { "COD_PROV": 57, "DEN_UTS": "Rieti" }, "geometry": { "type": "Polygon", "coordinates": [ [ [ 13.2645, 42.7402 ], [ 13.288, 42.7385 ], [ 13.2946, 42.7306 ], [ 13.3094, 42.7279 ], [ 13.3185, 42.7234 ], [ 13.3419, 42.7015 ], [ 13.3578, 42.6941 ], [ 13.3514, 42.6853 ], [ 13.3488, 42.6686 ], [ 13.3559, 42.6651 ], [ 13.3686, 42.6517 ], [ 13.3724, 42.6492 ], [ 13.3824, 42.6496 ], [ 13.4083, 42.6426 ], [ 13.4094, 42.6368 ], [ 13.4054, 42.6283 ], [ 13.3945, 42.6193 ], [ 13.3904, 42.6085 ], [ 13.391, 42.5933 ], [ 13.394, 42.5913 ], [ 13.3845, 42.586 ], [ 13.3818, 42.581 ], [ 13.3446, 42.5758 ], [ 13.3217, 42.5786 ], [ 13.2933, 42.5695 ], [ 13.2845, 42.5816 ], [ 13.2794, 42.5833 ], [ 13.2533, 42.5812 ], [ 13.2459, 42.5727 ], [ 13.234, 42.5757 ], [ 13.2254, 42.5827 ], [ 13.1914, 42.5875 ], [ 13.1923, 42.578 ], [ 13.1743, 42.5675 ], [ 13.1761, 42.5529 ], [ 13.1735, 42.5454 ], [ 13.1666, 42.5404 ], [ 13.1588, 42.54 ], [ 13.1574, 42.5277 ], [ 13.1598, 42.5234 ], [ 13.1669, 42.5155 ], [ 13.1778, 42.5126 ], [ 13.1714, 42.4851 ], [ 13.1784, 42.4793 ], [ 13.1541, 42.4623 ], [ 13.14, 42.4627 ], [ 13.1162, 42.4439 ], [ 13.1387, 42.4313 ], [ 13.1552, 42.4142 ], [ 13.169, 42.4076 ], [ 13.1855, 42.404 ], [ 13.1887, 42.4007 ], [ 13.1942, 42.3892 ], [ 13.1894, 42.3811 ], [ 13.1695, 42.3701 ], [ 13.1534, 42.357 ], [ 13.1716, 42.3487 ], [ 13.1914, 42.3323 ], [ 13.1979, 42.3313 ], [ 13.2208, 42.3193 ], [ 13.2261, 42.3193 ], [ 13.2302, 42.2854 ], [ 13.2391, 42.271 ], [ 13.2576, 42.264 ], [ 13.2698, 42.2551 ], [ 13.2745, 42.2436 ], [ 13.2828, 42.2369 ], [ 13.2972, 42.2311 ], [ 13.3199, 42.2296 ], [ 13.3331, 42.2228 ], [ 13.3387, 42.2155 ], [ 13.3319, 42.2082 ], [ 13.3415, 42.1984 ], [ 13.352, 42.1914 ], [ 13.3738, 42.1874 ], [ 13.3797, 42.1835 ], [ 13.3799, 42.1804 ], [ 13.3424, 42.1768 ], [ 13.3546, 42.1674 ], [ 13.3448, 42.1648 ], [ 13.3333, 42.1663 ], [ 13.3273, 42.1639 ], [ 13.3227, 42.161 ], [ 13.3283, 42.1547 ], [ 13.3222, 42.1525 ], [ 13.3175, 42.1537 ], [ 13.3097, 42.1469 ], [ 13.3053, 42.1383 ], [ 13.2849, 42.1343 ], [ 13.2778, 42.1375 ], [ 13.2695, 42.1375 ], [ 13.2488, 42.1274 ], [ 13.2373, 42.1291 ], [ 13.2233, 42.1433 ], [ 13.2057, 42.1484 ], [ 13.1954, 42.1578 ], [ 13.1833, 42.1589 ], [ 13.1781, 42.1534 ], [ 13.1697, 42.1507 ], [ 13.1199, 42.1767 ], [ 13.0876, 42.1782 ], [ 13.0868, 42.1732 ], [ 13.0926, 42.1689 ], [ 13.0937, 42.1593 ], [ 13.0808, 42.1405 ], [ 13.0649, 42.1267 ], [ 13.039, 42.1174 ], [ 13.0308, 42.1221 ], [ 13.0306, 42.1154 ], [ 13.0167, 42.1166 ], [ 13.0112, 42.1211 ], [ 12.999, 42.1234 ], [ 12.9895, 42.1292 ], [ 12.978, 42.1294 ], [ 12.9693, 42.122 ], [ 12.9568, 42.0973 ], [ 12.9511, 42.092 ], [ 12.9466, 42.0917 ], [ 12.9302, 42.1089 ], [ 12.919, 42.115 ], [ 12.9087, 42.1136 ], [ 12.9033, 42.1091 ], [ 12.9007, 42.1026 ], [ 12.8967, 42.1005 ], [ 12.868, 42.1038 ], [ 12.8601, 42.1216 ], [ 12.8608, 42.126 ], [ 12.8548, 42.1295 ], [ 12.8499, 42.1406 ], [ 12.8409, 42.1461 ], [ 12.8073, 42.1571 ], [ 12.8005, 42.1567 ], [ 12.7968, 42.1618 ], [ 12.7806, 42.1668 ], [ 12.7791, 42.1707 ], [ 12.7897, 42.173 ], [ 12.7941, 42.1775 ], [ 12.7945, 42.1812 ], [ 12.7883, 42.1861 ], [ 12.7682, 42.1884 ], [ 12.7571, 42.1836 ], [ 12.7373, 42.1667 ], [ 12.7234, 42.1657 ], [ 12.7163, 42.1548 ], [ 12.7109, 42.153 ], [ 12.6954, 42.1523 ], [ 12.6724, 42.1591 ], [ 12.6556, 42.1507 ], [ 12.6482, 42.1515 ], [ 12.6462, 42.1534 ], [ 12.6482, 42.16 ], [ 12.6453, 42.1644 ], [ 12.6323, 42.1696 ], [ 12.6209, 42.1784 ], [ 12.6082, 42.1821 ], [ 12.6175, 42.1902 ], [ 12.6129, 42.1963 ], [ 12.6132, 42.202 ], [ 12.621, 42.206 ], [ 12.6372, 42.208 ], [ 12.6418, 42.2309 ], [ 12.6406, 42.2361 ], [ 12.6346, 42.2388 ], [ 12.6325, 42.2444 ], [ 12.6271, 42.2485 ], [ 12.6202, 42.2501 ], [ 12.609, 42.2585 ], [ 12.6058, 42.2741 ], [ 12.5787, 42.2641 ], [ 12.5763, 42.2705 ], [ 12.5849, 42.2812 ], [ 12.581, 42.2848 ], [ 12.5738, 42.284 ], [ 12.5762, 42.2746 ], [ 12.5748, 42.2726 ], [ 12.5625, 42.2714 ], [ 12.5585, 42.2734 ], [ 12.5596, 42.2778 ], [ 12.5563, 42.2901 ], [ 12.5473, 42.295 ], [ 12.5376, 42.2958 ], [ 12.526, 42.2919 ], [ 12.5077, 42.2969 ], [ 12.4934, 42.2948 ], [ 12.4891, 42.2962 ], [ 12.4762, 42.3137 ], [ 12.4802, 42.3173 ], [ 12.4892, 42.3195 ], [ 12.4815, 42.3249 ], [ 12.4693, 42.3274 ], [ 12.4622, 42.3371 ], [ 12.4632, 42.3445 ], [ 12.4747, 42.3523 ], [ 12.4748, 42.3569 ], [ 12.463, 42.3544 ], [ 12.4549, 42.3573 ], [ 12.4542, 42.3641 ], [ 12.4581, 42.3686 ], [ 12.4576, 42.3806 ], [ 12.4389, 42.3837 ], [ 12.4364, 42.3872 ], [ 12.4447, 42.3988 ], [ 12.4645, 42.3961 ], [ 12.4745, 42.3875 ], [ 12.4858, 42.3925 ], [ 12.4881, 42.3987 ], [ 12.494, 42.3981 ], [ 12.5111, 42.4036 ], [ 12.5182, 42.3973 ], [ 12.5134, 42.3928 ], [ 12.5131, 42.3845 ], [ 12.5177, 42.3691 ], [ 12.5248, 42.3646 ], [ 12.53, 42.3642 ], [ 12.5409, 42.3766 ], [ 12.575, 42.3876 ], [ 12.6062, 42.4063 ], [ 12.614, 42.4135 ], [ 12.6146, 42.4217 ], [ 12.6115, 42.435 ], [ 12.6195, 42.4519 ], [ 12.619, 42.4611 ], [ 12.6148, 42.4651 ], [ 12.6224, 42.4689 ], [ 12.6411, 42.4678 ], [ 12.6422, 42.4538 ], [ 12.6503, 42.4473 ], [ 12.6495, 42.4433 ], [ 12.666, 42.441 ], [ 12.6906, 42.4494 ], [ 12.6985, 42.4546 ], [ 12.7028, 42.4609 ], [ 12.7106, 42.4635 ], [ 12.715, 42.46 ], [ 12.7247, 42.4604 ], [ 12.7416, 42.4705 ], [ 12.7204, 42.4855 ], [ 12.7114, 42.5003 ], [ 12.7273, 42.5089 ], [ 12.7735, 42.5131 ], [ 12.7736, 42.5198 ], [ 12.7706, 42.5251 ], [ 12.7732, 42.5313 ], [ 12.8204, 42.5359 ], [ 12.8334, 42.5417 ], [ 12.8478, 42.5528 ], [ 12.8703, 42.5606 ], [ 12.8928, 42.5642 ], [ 12.8942, 42.5776 ], [ 12.8792, 42.6009 ], [ 12.8805, 42.6093 ], [ 12.8963, 42.6164 ], [ 12.9158, 42.6095 ], [ 12.9187, 42.6055 ], [ 12.9301, 42.6029 ], [ 12.9375, 42.6154 ], [ 12.9525, 42.6189 ], [ 13.0043, 42.6152 ], [ 13.0143, 42.62 ], [ 13.0142, 42.6297 ], [ 13.0243, 42.639 ], [ 13.0307, 42.6374 ], [ 13.0379, 42.6274 ], [ 13.0633, 42.6233 ], [ 13.0786, 42.6312 ], [ 13.0988, 42.6367 ], [ 13.109, 42.6419 ], [ 13.1168, 42.6534 ], [ 13.1162, 42.6565 ], [ 13.1201, 42.6581 ], [ 13.1311, 42.6581 ], [ 13.1466, 42.647 ], [ 13.1684, 42.6616 ], [ 13.1741, 42.6683 ], [ 13.1795, 42.6834 ], [ 13.1759, 42.6831 ], [ 13.1733, 42.6873 ], [ 13.1907, 42.7104 ], [ 13.1892, 42.7336 ], [ 13.1956, 42.7343 ], [ 13.2392, 42.7261 ], [ 13.2542, 42.7215 ], [ 13.2597, 42.7275 ], [ 13.2645, 42.7402 ] ] ] } }
]
}
