{
"type": "FeatureCollection",
"name": "rieti_comuni_2025",
"crs": { "type": "name", "properties": { "name": "urn:ogc:def:crs:OGC:1.3:CRS84" } },
"xy_coordinate_resolution": 0.0001,
"features": [
{ "type": "Feature", "properties": { "PRO_COM_T": "057001", "COMUNE": "Accumoli" }, "geometry": { "type": "Polygon", "coordinates": [ [ [ 13.2645, 42.7402 ], [ 13.288, 42.7385 ], [ 13.2946, 42.7306 ], [ 13.3094, 42.7279 ], [ 13.3185, 42.7234 ], [ 13.3419, 42.7015 ], [ 13.3578, 42.6941 ], [ 13.3509, 42.6824 ], [ 13.3324, 42.6922 ], [ 13.3004, 42.6938 ], [ 13.2821, 42.6828 ], [ 13.267, 42.6789 ], [ 13.263, 42.6718 ], [ 13.2648, 42.6611 ], [ 13.2612, 42.6576 ], [ 13.251, 42.6596 ], [ 13.248, 42.6669 ], [ 13.2415, 42.6659 ], [ 13.2206, 42.6521 ], [ 13.203, 42.6443 ], [ 13.1732, 42.6486 ], [ 13.1603, 42.6562 ], [ 13.1736, 42.6654 ], [ 13.1783, 42.6768 ], [ 13.1795, 42.6834 ], [ 13.1759, 42.6831 ], [ 13.1733, 42.6873 ], [ 13.1905, 42.7099 ], [ 13.1892, 42.7336 ], [ 13.1956, 42.7343 ], [ 13.2392, 42.7261 ], [ 13.2542, 42.7215 ], [ 13.2597, 42.7275 ], [ 13.2645, 42.7402 ] ] ] } },
{ "type": "Feature", "properties": { "PRO_COM_T": "057002", "COMUNE": "Amatrice" }, "geometry": { "type": "Polygon", "coordinates": [ [ [ 13.33, 42.6925 ], [ 13.3497, 42.6839 ], [ 13.3488, 42.6686 ], [ 13.3559, 42.6651 ], [ 13.3686, 42.6517 ], [ 13.4083, 42.6429 ], [ 13.4091, 42.6361 ], [ 13.4054, 42.6283 ], [ 13.3947, 42.6217 ], [ 13.3954, 42.618 ], [ 13.3904, 42.6085 ], [ 13.391, 42.5933 ], [ 13.394, 42.5913 ], [ 13.3845, 42.586 ], [ 13.3818, 42.581 ], [ 13.3446, 42.5758 ], [ 13.3217, 42.5786 ], [ 13.2933, 42.5695 ], [ 13.2845, 42.5816 ], [ 13.2794, 42.5833 ], [ 13.2533, 42.5812 ], [ 13.2459, 42.5727 ], [ 13.2191, 42.5824 ], [ 13.1914, 42.5875 ], [ 13.1815, 42.6072 ], [ 13.1736, 42.6358 ], [ 13.1684, 42.6425 ], [ 13.1675, 42.6526 ], [ 13.1732, 42.6486 ], [ 13.203, 42.6443 ], [ 13.2206, 42.6521 ], [ 13.2415, 42.6659 ], [ 13.248, 42.6669 ], [ 13.251, 42.6596 ], [ 13.2612, 42.6576 ], [ 13.2648, 42.6611 ], [ 13.263, 42.6718 ], [ 13.2684, 42.68 ], [ 13.2821, 42.6828 ], [ 13.2995, 42.6937 ], [ 13.33, 42.6925 ] ] ] } },
{ "type": "Feature", "properties": { "PRO_COM_T": "057003", "COMUNE": "Antrodoco" }, "geometry": { "type": "Polygon", "coordinates": [ [ [ 13.1552, 42.4142 ], [ 13.1892, 42.4002 ], [ 13.1942, 42.3892 ], [ 13.1894, 42.3811 ], [ 13.1695, 42.3701 ], [ 13.1533, 42.357 ], [ 13.1306, 42.3652 ], [ 13.1126, 42.3678 ], [ 13.1006, 42.3659 ], [ 13.0858, 42.3601 ], [ 13.082, 42.3814 ], [ 13.073, 42.3885 ], [ 13.0739, 42.392 ], [ 13.0827, 42.3959 ], [ 13.0861, 42.4008 ], [ 13.0644, 42.4097 ], [ 13.061, 42.422 ], [ 13.1004, 42.4406 ], [ 13.1084, 42.4476 ], [ 13.1305, 42.4374 ], [ 13.1429, 42.428 ], [ 13.1552, 42.4142 ] ] ] } },
{ "type": "Feature", "properties": { "PRO_COM_T": "057004", "COMUNE": "Ascrea" }, "geometry": { "type": "MultiPolygon", "coordinates": [ [ [ [ 13.0329, 42.1967 ], [ 13.0306, 42.1908 ], [ 13.0216, 42.1896 ], [ 13.02, 42.1989 ], [ 13.0315, 42.1989 ], [ 13.0329, 42.1967 ] ] ], [ [ [ 12.9976, 42.2106 ], [ 12.9983, 42.2006 ], [ 13.0016, 42.1965 ], [ 12.9905, 42.1935 ], [ 12.9826, 42.1879 ], [ 12.9877, 42.1808 ], [ 12.9871, 42.1773 ], [ 12.9692, 42.1736 ], [ 12.9714, 42.1777 ], [ 12.9695, 42.184 ], [ 12.9759, 42.1983 ], [ 12.9744, 42.2015 ], [ 12.9801, 42.2078 ], [ 12.9896, 42.2112 ], [ 12.9976, 42.2106 ] ] ], [ [ [ 12.9561, 42.2577 ], [ 12.98, 42.2514 ], [ 12.9793, 42.2427 ], [ 12.975, 42.2338 ], [ 12.9607, 42.2417 ], [ 12.9467, 42.2362 ], [ 12.935, 42.2419 ], [ 12.9365, 42.244 ], [ 12.9325, 42.2493 ], [ 12.9352, 42.2563 ], [ 12.9561, 42.2577 ] ] ] ] } },
{ "type": "Feature", "properties": { "PRO_COM_T": "057005", "COMUNE": "Belmonte in Sabina" }, "geometry": { "type": "Polygon", "coordinates": [ [ [ 12.8713, 42.3692 ], [ 12.887, 42.3516 ], [ 12.8889, 42.3472 ], [ 12.8875, 42.3361 ], [ 12.8971, 42.3271 ], [ 12.9026, 42.3258 ], [ 12.9067, 42.316 ], [ 12.9069, 42.307 ], [ 12.9102, 42.2985 ], [ 12.8965, 42.2874 ], [ 12.8871, 42.2912 ], [ 12.878, 42.2876 ], [ 12.8751, 42.2905 ], [ 12.8695, 42.2991 ], [ 12.8653, 42.3168 ], [ 12.8597, 42.3275 ], [ 12.8571, 42.3458 ], [ 12.8627, 42.3618 ], [ 12.8613, 42.3731 ], [ 12.8713, 42.3692 ] ] ] } },
{ "type": "Feature", "properties": { "PRO_COM_T": "057006", "COMUNE": "Borbona" }, "geometry": { "type": "Polygon", "coordinates": [ [ [ 13.1566, 42.5378 ], [ 13.1578, 42.5284 ], [ 13.1669, 42.5155 ], [ 13.1778, 42.5126 ], [ 13.1714, 42.4851 ], [ 13.1784, 42.4793 ], [ 13.1541, 42.4623 ], [ 13.14, 42.4627 ], [ 13.1162, 42.4439 ], [ 13.1029, 42.4507 ], [ 13.1024, 42.4545 ], [ 13.0982, 42.4564 ], [ 13.0932, 42.4795 ], [ 13.0949, 42.4863 ], [ 13.1066, 42.4887 ], [ 13.1124, 42.4958 ], [ 13.1063, 42.5061 ], [ 13.1077, 42.5178 ], [ 13.104, 42.5248 ], [ 13.1113, 42.5295 ], [ 13.1398, 42.539 ], [ 13.1542, 42.5403 ], [ 13.1566, 42.5378 ] ] ] } },
{ "type": "Feature", "properties": { "PRO_COM_T": "057007", "COMUNE": "Borgorose" }, "geometry": { "type": "Polygon", "coordinates": [ [ [ 13.2998, 42.2306 ], [ 13.3199, 42.2296 ], [ 13.3271, 42.2238 ], [ 13.3356, 42.2224 ], [ 13.3387, 42.2155 ], [ 13.3319, 42.2082 ], [ 13.3415, 42.1984 ], [ 13.352, 42.1914 ], [ 13.3743, 42.187 ], [ 13.3799, 42.1804 ], [ 13.3424, 42.1768 ], [ 13.3546, 42.1674 ], [ 13.3448, 42.1648 ], [ 13.3333, 42.1663 ], [ 13.3273, 42.1639 ], [ 13.3227, 42.161 ], [ 13.3283, 42.1547 ], [ 13.3222, 42.1525 ], [ 13.3175, 42.1537 ], [ 13.3097, 42.1469 ], [ 13.3053, 42.1383 ], [ 13.2849, 42.1343 ], [ 13.2778, 42.1375 ], [ 13.2695, 42.1375 ], [ 13.2488, 42.1274 ], [ 13.2372, 42.1291 ], [ 13.2233, 42.1433 ], [ 13.2057, 42.1484 ], [ 13.1954, 42.1578 ], [ 13.1833, 42.1589 ], [ 13.1806, 42.1643 ], [ 13.172, 42.1694 ], [ 13.1811, 42.1867 ], [ 13.1896, 42.1949 ], [ 13.1825, 42.2107 ], [ 13.1966, 42.2137 ], [ 13.199, 42.2167 ], [ 13.194, 42.23 ], [ 13.2252, 42.249 ], [ 13.2348, 42.2638 ], [ 13.2432, 42.2697 ], [ 13.2567, 42.2648 ], [ 13.2698, 42.2551 ], [ 13.2745, 42.2436 ], [ 13.2828, 42.2369 ], [ 13.2998, 42.2306 ] ] ] } },
{ "type": "Feature", "properties": { "PRO_COM_T": "057008", "COMUNE": "Borgo Velino" }, "geometry": { "type": "Polygon", "coordinates": [ [ [ 12.9947, 42.4462 ], [ 13.0256, 42.4439 ], [ 13.0381, 42.4332 ], [ 13.0507, 42.4293 ], [ 13.0514, 42.4251 ], [ 13.0484, 42.4232 ], [ 13.061, 42.422 ], [ 13.0644, 42.4097 ], [ 13.0861, 42.4008 ], [ 13.0827, 42.3959 ], [ 13.0739, 42.392 ], [ 13.073, 42.3885 ], [ 13.082, 42.3814 ], [ 13.0858, 42.3601 ], [ 13.0789, 42.3601 ], [ 13.0684, 42.3719 ], [ 13.0532, 42.3673 ], [ 13.0474, 42.3732 ], [ 13.0557, 42.3776 ], [ 13.0592, 42.3847 ], [ 13.0505, 42.3942 ], [ 13.0408, 42.4209 ], [ 13.0318, 42.4291 ], [ 13.0142, 42.4342 ], [ 12.9947, 42.4462 ] ] ] } },
{ "type": "Feature", "properties": { "PRO_COM_T": "057009", "COMUNE": "Cantalice" }, "geometry": { "type": "Polygon", "coordinates": [ [ [ 12.9335, 42.5168 ], [ 12.9408, 42.5092 ], [ 12.9501, 42.5049 ], [ 12.9617, 42.5078 ], [ 12.9674, 42.5065 ], [ 12.9742, 42.4997 ], [ 12.9729, 42.4925 ], [ 12.9755, 42.4864 ], [ 12.9946, 42.4732 ], [ 12.9897, 42.4674 ], [ 12.9687, 42.4658 ], [ 12.9521, 42.4768 ], [ 12.9395, 42.4778 ], [ 12.9298, 42.4752 ], [ 12.9171, 42.4667 ], [ 12.9089, 42.4502 ], [ 12.9037, 42.4451 ], [ 12.8981, 42.446 ], [ 12.8931, 42.4502 ], [ 12.8696, 42.4489 ], [ 12.8653, 42.4551 ], [ 12.8684, 42.4562 ], [ 12.8696, 42.4601 ], [ 12.8683, 42.4711 ], [ 12.8627, 42.481 ], [ 12.9078, 42.4902 ], [ 12.9075, 42.4939 ], [ 12.9218, 42.5016 ], [ 12.9275, 42.5079 ], [ 12.9272, 42.5177 ], [ 12.9335, 42.5168 ] ] ] } },
{ "type": "Feature", "properties": { "PRO_COM_T": "057010", "COMUNE": "Cantalupo in Sabina" }, "geometry": { "type": "Polygon", "coordinates": [ [ [ 12.6375, 42.3296 ], [ 12.6427, 42.3233 ], [ 12.6619, 42.3121 ], [ 12.6567, 42.2968 ], [ 12.6565, 42.2875 ], [ 12.6522, 42.2841 ], [ 12.6384, 42.2829 ], [ 12.6377, 42.288 ], [ 12.6247, 42.2938 ], [ 12.6164, 42.2877 ], [ 12.6097, 42.2877 ], [ 12.6091, 42.2958 ], [ 12.6187, 42.2939 ], [ 12.6279, 42.302 ], [ 12.6316, 42.3099 ], [ 12.6344, 42.3246 ], [ 12.6331, 42.3289 ], [ 12.6375, 42.3296 ] ] ] } },
{ "type": "Feature", "properties": { "PRO_COM_T": "057011", "COMUNE": "Casaprota" }, "geometry": { "type": "Polygon", "coordinates": [ [ [ 12.8354, 42.2699 ], [ 12.8426, 42.2685 ], [ 12.8413, 42.2642 ], [ 12.8382, 42.2555 ], [ 12.8316, 42.2507 ], [ 12.8216, 42.2311 ], [ 12.8079, 42.234 ], [ 12.7787, 42.2308 ], [ 12.772, 42.2369 ], [ 12.7661, 42.238 ], [ 12.765, 42.2456 ], [ 12.7783, 42.2444 ], [ 12.8008, 42.2588 ], [ 12.8354, 42.2699 ] ] ] } },
{ "type": "Feature", "properties": { "PRO_COM_T": "057012", "COMUNE": "Casperia" }, "geometry": { "type": "Polygon", "coordinates": [ [ [ 12.7167, 42.3709 ], [ 12.7287, 42.3668 ], [ 12.7324, 42.3576 ], [ 12.7241, 42.3443 ], [ 12.7157, 42.3482 ], [ 12.6906, 42.3249 ], [ 12.6822, 42.3272 ], [ 12.6699, 42.3234 ], [ 12.6619, 42.3121 ], [ 12.6427, 42.3233 ], [ 12.6375, 42.3296 ], [ 12.6451, 42.3315 ], [ 12.6522, 42.3379 ], [ 12.6554, 42.3469 ], [ 12.6536, 42.3569 ], [ 12.6581, 42.3609 ], [ 12.6918, 42.3643 ], [ 12.7167, 42.3709 ] ] ] } },
{ "type": "Feature", "properties": { "PRO_COM_T": "057013", "COMUNE": "Castel di Tora" }, "geometry": { "type": "Polygon", "coordinates": [ [ [ 12.975, 42.2338 ], [ 12.9917, 42.2307 ], [ 13.0008, 42.2255 ], [ 13.0037, 42.2213 ], [ 12.9915, 42.2168 ], [ 12.9896, 42.2112 ], [ 12.9806, 42.2081 ], [ 12.9744, 42.2015 ], [ 12.9759, 42.1983 ], [ 12.9695, 42.184 ], [ 12.9706, 42.1762 ], [ 12.9576, 42.1792 ], [ 12.9495, 42.1886 ], [ 12.9426, 42.192 ], [ 12.9554, 42.2126 ], [ 12.9491, 42.2236 ], [ 12.975, 42.2338 ] ] ] } },
{ "type": "Feature", "properties": { "PRO_COM_T": "057014", "COMUNE": "Castelnuovo di Farfa" }, "geometry": { "type": "Polygon", "coordinates": [ [ [ 12.7341, 42.2444 ], [ 12.7536, 42.2437 ], [ 12.7561, 42.2375 ], [ 12.7518, 42.2245 ], [ 12.731, 42.2188 ], [ 12.7174, 42.226 ], [ 12.6979, 42.2282 ], [ 12.6986, 42.2308 ], [ 12.7119, 42.2375 ], [ 12.7179, 42.244 ], [ 12.7307, 42.2468 ], [ 12.7341, 42.2444 ] ] ] } },
{ "type": "Feature", "properties": { "PRO_COM_T": "057015", "COMUNE": "Castel Sant'Angelo" }, "geometry": { "type": "Polygon", "coordinates": [ [ [ 13.0408, 42.4209 ], [ 13.0505, 42.3942 ], [ 13.0592, 42.3843 ], [ 13.0557, 42.3776 ], [ 13.0493, 42.3731 ], [ 13.0403, 42.3757 ], [ 13.0066, 42.3655 ], [ 12.9929, 42.3659 ], [ 12.9968, 42.3779 ], [ 12.9831, 42.392 ], [ 12.9818, 42.397 ], [ 12.9877, 42.4122 ], [ 12.9936, 42.4175 ], [ 12.9986, 42.4175 ], [ 13.0085, 42.4323 ], [ 13.0055, 42.4383 ], [ 12.9941, 42.4462 ], [ 13.0142, 42.4342 ], [ 13.0334, 42.4282 ], [ 13.0408, 42.4209 ] ] ] } },
{ "type": "Feature", "properties": { "PRO_COM_T": "057016", "COMUNE": "Cittaducale" }, "geometry": { "type": "Polygon", "coordinates": [ [ [ 13.0083, 42.4328 ], [ 12.9986, 42.4175 ], [ 12.9936, 42.4175 ], [ 12.9877, 42.4122 ], [ 12.9818, 42.397 ], [ 12.9831, 42.392 ], [ 12.9968, 42.3779 ], [ 12.9929, 42.3659 ], [ 13.0066, 42.3655 ], [ 13.0403, 42.3757 ], [ 13.0473, 42.3735 ], [ 13.0532, 42.3673 ], [ 13.0293, 42.3494 ], [ 13.0062, 42.338 ], [ 12.9997, 42.3387 ], [ 12.9988, 42.3416 ], [ 12.9933, 42.3447 ], [ 12.9723, 42.3381 ], [ 12.9616, 42.3525 ], [ 12.9298, 42.3581 ], [ 12.9188, 42.3781 ], [ 12.8985, 42.392 ], [ 12.9043, 42.3995 ], [ 12.9046, 42.4133 ], [ 12.9345, 42.4224 ], [ 12.9586, 42.4353 ], [ 12.9661, 42.4361 ], [ 12.9788, 42.4328 ], [ 12.9891, 42.4384 ], [ 12.9941, 42.4462 ], [ 13.0055, 42.4383 ], [ 13.0083, 42.4328 ] ] ] } },
{ "type": "Feature", "properties": { "PRO_COM_T": "057017", "COMUNE": "Cittareale" }, "geometry": { "type": "Polygon", "coordinates": [ [ [ 13.1311, 42.6581 ], [ 13.1466, 42.647 ], [ 13.1603, 42.6562 ], [ 13.1675, 42.6526 ], [ 13.1684, 42.6425 ], [ 13.1736, 42.6358 ], [ 13.1815, 42.6072 ], [ 13.1923, 42.584 ], [ 13.1923, 42.578 ], [ 13.1743, 42.5675 ], [ 13.1761, 42.5529 ], [ 13.1735, 42.5454 ], [ 13.1666, 42.5404 ], [ 13.1558, 42.5401 ], [ 13.1575, 42.5501 ], [ 13.1251, 42.5657 ], [ 13.1084, 42.5821 ], [ 13.1132, 42.5989 ], [ 13.1165, 42.6012 ], [ 13.1163, 42.6175 ], [ 13.1129, 42.6286 ], [ 13.102, 42.638 ], [ 13.1095, 42.6423 ], [ 13.1182, 42.6577 ], [ 13.1311, 42.6581 ] ] ] } },
{ "type": "Feature", "properties": { "PRO_COM_T": "057018", "COMUNE": "Collalto Sabino" }, "geometry": { "type": "Polygon", "coordinates": [ [ [ 13.0578, 42.1983 ], [ 13.058, 42.1946 ], [ 13.0694, 42.188 ], [ 13.0849, 42.1832 ], [ 13.0868, 42.1732 ], [ 13.0935, 42.1665 ], [ 13.087, 42.1649 ], [ 13.0651, 42.1722 ], [ 13.0621, 42.1695 ], [ 13.0554, 42.1692 ], [ 13.0571, 42.1592 ], [ 13.0512, 42.1491 ], [ 13.0645, 42.14 ], [ 13.0768, 42.139 ], [ 13.0731, 42.1319 ], [ 13.0649, 42.1267 ], [ 13.039, 42.1174 ], [ 13.0308, 42.1221 ], [ 13.0325, 42.1252 ], [ 13.0175, 42.1413 ], [ 13.0275, 42.1457 ], [ 13.0235, 42.1523 ], [ 13.0277, 42.1617 ], [ 13.0315, 42.1613 ], [ 13.0406, 42.1681 ], [ 13.0541, 42.1711 ], [ 13.054, 42.1752 ], [ 13.0483, 42.1827 ], [ 13.0432, 42.1967 ], [ 13.0578, 42.1983 ] ] ] } },
{ "type": "Feature", "properties": { "PRO_COM_T": "057019", "COMUNE": "Colle di Tora" }, "geometry": { "type": "Polygon", "coordinates": [ [ [ 12.9489, 42.2241 ], [ 12.9554, 42.2126 ], [ 12.9426, 42.192 ], [ 12.9495, 42.1886 ], [ 12.9576, 42.1792 ], [ 12.9412, 42.1726 ], [ 12.9229, 42.1763 ], [ 12.915, 42.1886 ], [ 12.9198, 42.1965 ], [ 12.9214, 42.2076 ], [ 12.9182, 42.2268 ], [ 12.9386, 42.2227 ], [ 12.9431, 42.2271 ], [ 12.9489, 42.2241 ] ] ] } },
{ "type": "Feature", "properties": { "PRO_COM_T": "057020", "COMUNE": "Collegiove" }, "geometry": { "type": "Polygon", "coordinates": [ [ [ 13.0432, 42.1967 ], [ 13.0483, 42.1827 ], [ 13.054, 42.1752 ], [ 13.0541, 42.1711 ], [ 13.0406, 42.1681 ], [ 13.0315, 42.1613 ], [ 13.0277, 42.1617 ], [ 13.0235, 42.1523 ], [ 13.0275, 42.1457 ], [ 13.0175, 42.1413 ], [ 13.0126, 42.147 ], [ 13.0146, 42.1502 ], [ 13.0086, 42.1597 ], [ 13.0229, 42.1699 ], [ 13.0168, 42.1872 ], [ 13.0306, 42.1908 ], [ 13.0329, 42.1958 ], [ 13.0315, 42.1989 ], [ 13.0432, 42.1967 ] ] ] } },
{ "type": "Feature", "properties": { "PRO_COM_T": "057021", "COMUNE": "Collevecchio" }, "geometry": { "type": "Polygon", "coordinates": [ [ [ 12.5258, 42.3612 ], [ 12.5522, 42.3509 ], [ 12.5622, 42.3428 ], [ 12.57, 42.3413 ], [ 12.5669, 42.3242 ], [ 12.5561, 42.3181 ], [ 12.5556, 42.3126 ], [ 12.5392, 42.3082 ], [ 12.5333, 42.303 ], [ 12.5314, 42.2979 ], [ 12.5339, 42.2948 ], [ 12.5322, 42.293 ], [ 12.5243, 42.2921 ], [ 12.5069, 42.2972 ], [ 12.4954, 42.2951 ], [ 12.4947, 42.2994 ], [ 12.4914, 42.3003 ], [ 12.4953, 42.3089 ], [ 12.5037, 42.3172 ], [ 12.508, 42.3348 ], [ 12.5191, 42.3416 ], [ 12.5265, 42.3496 ], [ 12.5258, 42.3612 ] ] ] } },
{ "type": "Feature", "properties": { "PRO_COM_T": "057022", "COMUNE": "Colli sul Velino" }, "geometry": { "type": "Polygon", "coordinates": [ [ [ 12.7749, 42.5117 ], [ 12.7921, 42.5055 ], [ 12.814, 42.5016 ], [ 12.8191, 42.4922 ], [ 12.8131, 42.4842 ], [ 12.8135, 42.4807 ], [ 12.8165, 42.4789 ], [ 12.8115, 42.4804 ], [ 12.8076, 42.4855 ], [ 12.7924, 42.4897 ], [ 12.78, 42.4898 ], [ 12.7722, 42.4861 ], [ 12.7653, 42.4859 ], [ 12.7598, 42.4917 ], [ 12.7493, 42.4948 ], [ 12.7434, 42.4999 ], [ 12.7458, 42.5079 ], [ 12.7512, 42.5112 ], [ 12.7749, 42.5117 ] ] ] } },
{ "type": "Feature", "properties": { "PRO_COM_T": "057023", "COMUNE": "Concerviano" }, "geometry": { "type": "MultiPolygon", "coordinates": [ [ [ [ 12.9794, 42.3325 ], [ 12.9869, 42.3311 ], [ 12.9903, 42.3275 ], [ 12.9939, 42.319 ], [ 12.9956, 42.3021 ], [ 13.0087, 42.2884 ], [ 12.9924, 42.2789 ], [ 12.9812, 42.2791 ], [ 12.971, 42.2842 ], [ 12.9594, 42.2823 ], [ 12.9421, 42.286 ], [ 12.9382, 42.2937 ], [ 12.9397, 42.298 ], [ 12.9504, 42.3054 ], [ 12.968, 42.3061 ], [ 12.9692, 42.3096 ], [ 12.9651, 42.3095 ], [ 12.9665, 42.3153 ], [ 12.9756, 42.3233 ], [ 12.976, 42.3268 ], [ 12.9726, 42.3277 ], [ 12.9741, 42.331 ], [ 12.9797, 42.334 ], [ 12.9794, 42.3325 ] ] ], [ [ [ 12.9484, 42.3472 ], [ 12.9494, 42.3419 ], [ 12.9391, 42.3372 ], [ 12.9164, 42.3455 ], [ 12.9257, 42.3546 ], [ 12.9484, 42.3472 ] ] ] ] } },
{ "type": "Feature", "properties": { "PRO_COM_T": "057024", "COMUNE": "Configni" }, "geometry": { "type": "Polygon", "coordinates": [ [ [ 12.6224, 42.4689 ], [ 12.6411, 42.4678 ], [ 12.6422, 42.4538 ], [ 12.6503, 42.4473 ], [ 12.6495, 42.4433 ], [ 12.6606, 42.4414 ], [ 12.6634, 42.4268 ], [ 12.6587, 42.4154 ], [ 12.6639, 42.3992 ], [ 12.6273, 42.4053 ], [ 12.6193, 42.4128 ], [ 12.6144, 42.4135 ], [ 12.6142, 42.4244 ], [ 12.611, 42.428 ], [ 12.6195, 42.4519 ], [ 12.619, 42.4611 ], [ 12.6141, 42.4645 ], [ 12.6224, 42.4689 ] ] ] } },
{ "type": "Feature", "properties": { "PRO_COM_T": "057025", "COMUNE": "Contigliano" }, "geometry": { "type": "Polygon", "coordinates": [ [ [ 12.7493, 42.4948 ], [ 12.7598, 42.4917 ], [ 12.7653, 42.4859 ], [ 12.7722, 42.4861 ], [ 12.78, 42.4898 ], [ 12.7924, 42.4897 ], [ 12.8076, 42.4855 ], [ 12.8113, 42.4821 ], [ 12.8115, 42.4804 ], [ 12.797, 42.4781 ], [ 12.7878, 42.4659 ], [ 12.7917, 42.4502 ], [ 12.7986, 42.444 ], [ 12.7911, 42.4367 ], [ 12.7966, 42.4298 ], [ 12.7955, 42.4167 ], [ 12.8043, 42.4054 ], [ 12.781, 42.3886 ], [ 12.7716, 42.3759 ], [ 12.7708, 42.3707 ], [ 12.7492, 42.3624 ], [ 12.7448, 42.3587 ], [ 12.7327, 42.3589 ], [ 12.7287, 42.3668 ], [ 12.7179, 42.3707 ], [ 12.7164, 42.3744 ], [ 12.7188, 42.385 ], [ 12.7299, 42.3902 ], [ 12.7303, 42.3996 ], [ 12.7278, 42.403 ], [ 12.727, 42.4122 ], [ 12.7203, 42.418 ], [ 12.7295, 42.4365 ], [ 12.7449, 42.43 ], [ 12.7605, 42.4311 ], [ 12.7829, 42.4362 ], [ 12.7864, 42.4425 ], [ 12.7757, 42.4673 ], [ 12.7667, 42.4692 ], [ 12.7473, 42.4677 ], [ 12.7455, 42.471 ], [ 12.7507, 42.4796 ], [ 12.7493, 42.4948 ] ] ] } },
{ "type": "Feature", "properties": { "PRO_COM_T": "057026", "COMUNE": "Cottanello" }, "geometry": { "type": "Polygon", "coordinates": [ [ [ 12.7143, 42.4603 ], [ 12.7247, 42.4604 ], [ 12.7295, 42.4365 ], [ 12.7203, 42.418 ], [ 12.727, 42.4122 ], [ 12.7278, 42.403 ], [ 12.7303, 42.3996 ], [ 12.7299, 42.3902 ], [ 12.715, 42.3818 ], [ 12.707, 42.3844 ], [ 12.6957, 42.3928 ], [ 12.6876, 42.3942 ], [ 12.6625, 42.392 ], [ 12.6642, 42.4011 ], [ 12.6587, 42.4154 ], [ 12.6634, 42.4268 ], [ 12.6606, 42.4414 ], [ 12.6727, 42.4421 ], [ 12.6906, 42.4494 ], [ 12.6985, 42.4546 ], [ 12.7028, 42.4609 ], [ 12.7106, 42.4635 ], [ 12.7143, 42.4603 ] ] ] } },
{ "type": "Feature", "properties": { "PRO_COM_T": "057027", "COMUNE": "Fara in Sabina" }, "geometry": { "type": "Polygon", "coordinates": [ [ [ 12.7174, 42.226 ], [ 12.731, 42.2188 ], [ 12.7298, 42.2169 ], [ 12.7521, 42.1945 ], [ 12.7562, 42.1828 ], [ 12.7373, 42.1667 ], [ 12.7234, 42.1657 ], [ 12.7163, 42.1548 ], [ 12.7109, 42.153 ], [ 12.6954, 42.1523 ], [ 12.6724, 42.1591 ], [ 12.6556, 42.1507 ], [ 12.647, 42.1521 ], [ 12.6482, 42.16 ], [ 12.6453, 42.1644 ], [ 12.6343, 42.1705 ], [ 12.6353, 42.1747 ], [ 12.6445, 42.1883 ], [ 12.6579, 42.1951 ], [ 12.6624, 42.2073 ], [ 12.6898, 42.2156 ], [ 12.6935, 42.2186 ], [ 12.6947, 42.2273 ], [ 12.7015, 42.2285 ], [ 12.7174, 42.226 ] ] ] } },
{ "type": "Feature", "properties": { "PRO_COM_T": "057028", "COMUNE": "Fiamignano" }, "geometry": { "type": "Polygon", "coordinates": [ [ [ 13.1126, 42.3678 ], [ 13.1472, 42.3599 ], [ 13.1716, 42.3487 ], [ 13.1914, 42.3323 ], [ 13.1979, 42.3313 ], [ 13.2208, 42.3193 ], [ 13.2265, 42.3193 ], [ 13.2286, 42.2884 ], [ 13.2346, 42.2779 ], [ 13.2136, 42.2725 ], [ 13.1936, 42.2726 ], [ 13.1692, 42.2514 ], [ 13.1654, 42.2411 ], [ 13.1488, 42.2289 ], [ 13.1037, 42.247 ], [ 13.1006, 42.2545 ], [ 13.1051, 42.2742 ], [ 13.1269, 42.2936 ], [ 13.13, 42.3047 ], [ 13.1287, 42.3204 ], [ 13.1056, 42.3452 ], [ 13.0927, 42.3458 ], [ 13.0841, 42.3544 ], [ 13.0858, 42.3601 ], [ 13.1006, 42.3659 ], [ 13.1126, 42.3678 ] ] ] } },
{ "type": "Feature", "properties": { "PRO_COM_T": "057029", "COMUNE": "Forano" }, "geometry": { "type": "Polygon", "coordinates": [ [ [ 12.5728, 42.3135 ], [ 12.597, 42.3109 ], [ 12.6047, 42.3057 ], [ 12.6115, 42.2966 ], [ 12.6084, 42.2942 ], [ 12.6097, 42.2877 ], [ 12.6164, 42.2877 ], [ 12.6247, 42.2938 ], [ 12.6377, 42.288 ], [ 12.6405, 42.2731 ], [ 12.6315, 42.2696 ], [ 12.6216, 42.2613 ], [ 12.6128, 42.2587 ], [ 12.6054, 42.2604 ], [ 12.6077, 42.2688 ], [ 12.605, 42.2743 ], [ 12.5787, 42.2641 ], [ 12.5763, 42.2705 ], [ 12.5849, 42.2812 ], [ 12.583, 42.2958 ], [ 12.5849, 42.2994 ], [ 12.5836, 42.3034 ], [ 12.5765, 42.3079 ], [ 12.5728, 42.3135 ] ] ] } },
{ "type": "Feature", "properties": { "PRO_COM_T": "057030", "COMUNE": "Frasso Sabino" }, "geometry": { "type": "Polygon", "coordinates": [ [ [ 12.8144, 42.2332 ], [ 12.8243, 42.2302 ], [ 12.8279, 42.2216 ], [ 12.8278, 42.2177 ], [ 12.8192, 42.2076 ], [ 12.8114, 42.2121 ], [ 12.8075, 42.22 ], [ 12.8006, 42.224 ], [ 12.7985, 42.2297 ], [ 12.7994, 42.2327 ], [ 12.8144, 42.2332 ] ] ] } },
{ "type": "Feature", "properties": { "PRO_COM_T": "057031", "COMUNE": "Greccio" }, "geometry": { "type": "Polygon", "coordinates": [ [ [ 12.7473, 42.4677 ], [ 12.7667, 42.4692 ], [ 12.7757, 42.4673 ], [ 12.7865, 42.4457 ], [ 12.7839, 42.4367 ], [ 12.7463, 42.4298 ], [ 12.7287, 42.4368 ], [ 12.7247, 42.4604 ], [ 12.7308, 42.4659 ], [ 12.7416, 42.4705 ], [ 12.7473, 42.4677 ] ] ] } },
{ "type": "Feature", "properties": { "PRO_COM_T": "057032", "COMUNE": "Labro" }, "geometry": { "type": "Polygon", "coordinates": [ [ [ 12.8129, 42.535 ], [ 12.818, 42.5329 ], [ 12.8182, 42.5213 ], [ 12.8271, 42.5175 ], [ 12.8271, 42.5132 ], [ 12.8169, 42.5112 ], [ 12.8121, 42.5066 ], [ 12.814, 42.5016 ], [ 12.7921, 42.5055 ], [ 12.7732, 42.513 ], [ 12.7736, 42.5198 ], [ 12.7706, 42.5251 ], [ 12.7732, 42.5313 ], [ 12.8129, 42.535 ] ] ] } },
{ "type": "Feature", "properties": { "PRO_COM_T": "057033", "COMUNE": "Leonessa" }, "geometry": { "type": "Polygon", "coordinates": [ [ [ 13.116, 42.6189 ], [ 13.1166, 42.6015 ], [ 13.1132, 42.5989 ], [ 13.1104, 42.5867 ], [ 13.1084, 42.5843 ], [ 13.1055, 42.5878 ], [ 13.0952, 42.577 ], [ 13.0954, 42.5636 ], [ 13.0882, 42.5568 ], [ 13.0811, 42.542 ], [ 13.0565, 42.5304 ], [ 13.0459, 42.5222 ], [ 13.04, 42.5136 ], [ 13.0272, 42.5116 ], [ 13.0204, 42.5058 ], [ 13.012, 42.4912 ], [ 13.0132, 42.4862 ], [ 13.009, 42.4741 ], [ 12.9946, 42.4732 ], [ 12.9755, 42.4864 ], [ 12.9729, 42.4925 ], [ 12.9745, 42.4988 ], [ 12.9685, 42.5056 ], [ 12.9623, 42.5079 ], [ 12.9501, 42.5049 ], [ 12.9431, 42.5079 ], [ 12.9256, 42.5208 ], [ 12.9226, 42.5269 ], [ 12.9131, 42.5318 ], [ 12.9106, 42.5389 ], [ 12.9157, 42.5453 ], [ 12.9021, 42.552 ], [ 12.8935, 42.5621 ], [ 12.8942, 42.5776 ], [ 12.8801, 42.6024 ], [ 12.8805, 42.6093 ], [ 12.8963, 42.6164 ], [ 12.9158, 42.6095 ], [ 12.9187, 42.6055 ], [ 12.9301, 42.6029 ], [ 12.9375, 42.6154 ], [ 12.9525, 42.6189 ], [ 13.0052, 42.6155 ], [ 13.0143, 42.62 ], [ 13.0142, 42.6297 ], [ 13.0243, 42.639 ], [ 13.0307, 42.6374 ], [ 13.0379, 42.6274 ], [ 13.0586, 42.6228 ], [ 13.102, 42.638 ], [ 13.1129, 42.6286 ], [ 13.116, 42.6189 ] ] ] } },
{ "type": "Feature", "properties": { "PRO_COM_T": "057034", "COMUNE": "Longone Sabino" }, "geometry": { "type": "MultiPolygon", "coordinates": [ [ [ [ 12.9509, 42.2834 ], [ 12.971, 42.2842 ], [ 12.9791, 42.2807 ], [ 12.993, 42.2669 ], [ 12.9926, 42.2622 ], [ 12.9829, 42.2566 ], [ 12.98, 42.2514 ], [ 12.9602, 42.2574 ], [ 12.9352, 42.2563 ], [ 12.9326, 42.2579 ], [ 12.935, 42.2692 ], [ 12.9395, 42.2729 ], [ 12.9406, 42.2843 ], [ 12.9421, 42.286 ], [ 12.9509, 42.2834 ] ] ], [ [ [ 12.9637, 42.3487 ], [ 12.9723, 42.3381 ], [ 12.9797, 42.334 ], [ 12.9741, 42.331 ], [ 12.9726, 42.3277 ], [ 12.976, 42.3268 ], [ 12.9756, 42.3233 ], [ 12.9665, 42.3153 ], [ 12.9651, 42.3095 ], [ 12.9694, 42.3092 ], [ 12.9674, 42.3057 ], [ 12.9504, 42.3054 ], [ 12.9397, 42.298 ], [ 12.9382, 42.2937 ], [ 12.9218, 42.2986 ], [ 12.9229, 42.3018 ], [ 12.9294, 42.3043 ], [ 12.9295, 42.3112 ], [ 12.917, 42.3166 ], [ 12.9067, 42.316 ], [ 12.9026, 42.3263 ], [ 12.9138, 42.3352 ], [ 12.9164, 42.3455 ], [ 12.9391, 42.3372 ], [ 12.9494, 42.3419 ], [ 12.9484, 42.3472 ], [ 12.9637, 42.3487 ] ] ] ] } },
{ "type": "Feature", "properties": { "PRO_COM_T": "057035", "COMUNE": "Magliano Sabina" }, "geometry": { "type": "Polygon", "coordinates": [ [ [ 12.5121, 42.4028 ], [ 12.5182, 42.3973 ], [ 12.5134, 42.3928 ], [ 12.5141, 42.3777 ], [ 12.5189, 42.3675 ], [ 12.5261, 42.3642 ], [ 12.5246, 42.3583 ], [ 12.5265, 42.3496 ], [ 12.5191, 42.3416 ], [ 12.508, 42.3348 ], [ 12.5037, 42.3172 ], [ 12.4953, 42.3089 ], [ 12.4914, 42.3003 ], [ 12.4947, 42.2994 ], [ 12.4954, 42.2951 ], [ 12.4919, 42.2949 ], [ 12.4815, 42.3041 ], [ 12.4762, 42.3137 ], [ 12.4802, 42.3173 ], [ 12.4892, 42.3195 ], [ 12.4815, 42.3249 ], [ 12.4693, 42.3274 ], [ 12.4622, 42.3371 ], [ 12.4632, 42.3445 ], [ 12.4747, 42.3523 ], [ 12.4748, 42.3569 ], [ 12.463, 42.3544 ], [ 12.4546, 42.3574 ], [ 12.4546, 42.3629 ], [ 12.4589, 42.3686 ], [ 12.4576, 42.3806 ], [ 12.4383, 42.3839 ], [ 12.4364, 42.3875 ], [ 12.4422, 42.3926 ], [ 12.442, 42.3951 ], [ 12.4379, 42.3958 ], [ 12.4447, 42.3988 ], [ 12.4509, 42.3966 ], [ 12.4596, 42.3978 ], [ 12.4745, 42.3875 ], [ 12.4858, 42.3925 ], [ 12.4881, 42.3987 ], [ 12.494, 42.3981 ], [ 12.5012, 42.4017 ], [ 12.5121, 42.4028 ] ] ] } },
{ "type": "Feature", "properties": { "PRO_COM_T": "057036", "COMUNE": "Marcetelli" }, "geometry": { "type": "Polygon", "coordinates": [ [ [ 13.0561, 42.2257 ], [ 13.0578, 42.1983 ], [ 13.0432, 42.1967 ], [ 13.0176, 42.1988 ], [ 13.023, 42.2048 ], [ 13.0231, 42.2197 ], [ 13.0317, 42.2271 ], [ 13.0511, 42.2349 ], [ 13.06, 42.2439 ], [ 13.0678, 42.2455 ], [ 13.063, 42.2319 ], [ 13.0561, 42.2257 ] ] ] } },
{ "type": "Feature", "properties": { "PRO_COM_T": "057037", "COMUNE": "Micigliano" }, "geometry": { "type": "Polygon", "coordinates": [ [ [ 13.0616, 42.478 ], [ 13.076, 42.4739 ], [ 13.0851, 42.4621 ], [ 13.1024, 42.4545 ], [ 13.1029, 42.4507 ], [ 13.108, 42.4462 ], [ 13.098, 42.4394 ], [ 13.061, 42.422 ], [ 13.0484, 42.4232 ], [ 13.0514, 42.4251 ], [ 13.0507, 42.4293 ], [ 13.0381, 42.4332 ], [ 13.0256, 42.4439 ], [ 12.9921, 42.447 ], [ 12.9854, 42.46 ], [ 12.9946, 42.4732 ], [ 13.009, 42.4741 ], [ 13.0147, 42.4686 ], [ 13.023, 42.4658 ], [ 13.0337, 42.4757 ], [ 13.0475, 42.4786 ], [ 13.0616, 42.478 ] ] ] } },
{ "type": "Feature", "properties": { "PRO_COM_T": "057038", "COMUNE": "Mompeo" }, "geometry": { "type": "Polygon", "coordinates": [ [ [ 12.78, 42.285 ], [ 12.7856, 42.2709 ], [ 12.797, 42.2566 ], [ 12.7937, 42.2528 ], [ 12.7765, 42.2438 ], [ 12.765, 42.2456 ], [ 12.7657, 42.241 ], [ 12.7543, 42.2419 ], [ 12.7536, 42.2437 ], [ 12.7429, 42.2427 ], [ 12.7307, 42.2468 ], [ 12.763, 42.2559 ], [ 12.7679, 42.2655 ], [ 12.7678, 42.2844 ], [ 12.78, 42.285 ] ] ] } },
{ "type": "Feature", "properties": { "PRO_COM_T": "057039", "COMUNE": "Montasola" }, "geometry": { "type": "Polygon", "coordinates": [ [ [ 12.6957, 42.3928 ], [ 12.707, 42.3844 ], [ 12.7166, 42.3819 ], [ 12.7179, 42.3707 ], [ 12.6918, 42.3643 ], [ 12.6688, 42.3635 ], [ 12.6678, 42.3683 ], [ 12.6534, 42.3728 ], [ 12.6561, 42.3742 ], [ 12.6598, 42.3897 ], [ 12.6625, 42.392 ], [ 12.6876, 42.3942 ], [ 12.6957, 42.3928 ] ] ] } },
{ "type": "Feature", "properties": { "PRO_COM_T": "057040", "COMUNE": "Montebuono" }, "geometry": { "type": "Polygon", "coordinates": [ [ [ 12.6115, 42.3799 ], [ 12.6068, 42.3663 ], [ 12.6077, 42.3631 ], [ 12.5758, 42.3574 ], [ 12.5704, 42.3571 ], [ 12.5662, 42.3608 ], [ 12.557, 42.3561 ], [ 12.554, 42.3578 ], [ 12.5396, 42.3548 ], [ 12.5258, 42.3612 ], [ 12.5261, 42.3642 ], [ 12.5312, 42.3651 ], [ 12.538, 42.3744 ], [ 12.546, 42.3795 ], [ 12.5663, 42.3835 ], [ 12.601, 42.4017 ], [ 12.6019, 42.3971 ], [ 12.6109, 42.3874 ], [ 12.6115, 42.3799 ] ] ] } },
{ "type": "Feature", "properties": { "PRO_COM_T": "057041", "COMUNE": "Monteleone Sabino" }, "geometry": { "type": "Polygon", "coordinates": [ [ [ 12.8848, 42.2426 ], [ 12.9149, 42.2269 ], [ 12.9058, 42.2214 ], [ 12.8979, 42.2122 ], [ 12.8603, 42.2086 ], [ 12.8305, 42.2166 ], [ 12.8243, 42.2302 ], [ 12.871, 42.243 ], [ 12.8848, 42.2426 ] ] ] } },
{ "type": "Feature", "properties": { "PRO_COM_T": "057042", "COMUNE": "Montenero Sabino" }, "geometry": { "type": "Polygon", "coordinates": [ [ [ 12.829, 42.3159 ], [ 12.8353, 42.3087 ], [ 12.8416, 42.3081 ], [ 12.8393, 42.2966 ], [ 12.8423, 42.2908 ], [ 12.8369, 42.2812 ], [ 12.8414, 42.269 ], [ 12.8306, 42.2696 ], [ 12.797, 42.2566 ], [ 12.7856, 42.2709 ], [ 12.78, 42.285 ], [ 12.7836, 42.2945 ], [ 12.7868, 42.2993 ], [ 12.816, 42.3151 ], [ 12.829, 42.3159 ] ] ] } },
{ "type": "Feature", "properties": { "PRO_COM_T": "057043", "COMUNE": "Monte San Giovanni in Sabina" }, "geometry": { "type": "Polygon", "coordinates": [ [ [ 12.781, 42.3401 ], [ 12.8374, 42.3234 ], [ 12.829, 42.3159 ], [ 12.816, 42.3151 ], [ 12.7868, 42.2993 ], [ 12.78, 42.285 ], [ 12.7678, 42.2844 ], [ 12.7558, 42.2896 ], [ 12.7467, 42.3035 ], [ 12.7394, 42.302 ], [ 12.7272, 42.305 ], [ 12.7274, 42.3262 ], [ 12.7332, 42.3305 ], [ 12.7345, 42.335 ], [ 12.7506, 42.3273 ], [ 12.7607, 42.3294 ], [ 12.7733, 42.3405 ], [ 12.781, 42.3401 ] ] ] } },
{ "type": "Feature", "properties": { "PRO_COM_T": "057044", "COMUNE": "Montopoli di Sabina" }, "geometry": { "type": "Polygon", "coordinates": [ [ [ 12.7235, 42.2744 ], [ 12.7127, 42.2612 ], [ 12.7111, 42.2542 ], [ 12.7075, 42.252 ], [ 12.7139, 42.2455 ], [ 12.7199, 42.2475 ], [ 12.7119, 42.2375 ], [ 12.6947, 42.2273 ], [ 12.6931, 42.218 ], [ 12.6829, 42.2127 ], [ 12.6624, 42.2073 ], [ 12.6579, 42.1951 ], [ 12.6445, 42.1883 ], [ 12.6343, 42.1705 ], [ 12.6275, 42.1708 ], [ 12.6136, 42.1811 ], [ 12.6132, 42.202 ], [ 12.621, 42.206 ], [ 12.6372, 42.208 ], [ 12.6418, 42.2309 ], [ 12.6394, 42.237 ], [ 12.6543, 42.239 ], [ 12.6714, 42.2562 ], [ 12.6776, 42.2557 ], [ 12.6874, 42.2605 ], [ 12.7144, 42.2774 ], [ 12.7223, 42.2851 ], [ 12.7235, 42.2744 ] ] ] } },
{ "type": "Feature", "properties": { "PRO_COM_T": "057045", "COMUNE": "Morro Reatino" }, "geometry": { "type": "Polygon", "coordinates": [ [ [ 12.8697, 42.5512 ], [ 12.862, 42.5326 ], [ 12.8402, 42.5142 ], [ 12.8294, 42.4942 ], [ 12.8191, 42.4922 ], [ 12.8121, 42.5066 ], [ 12.8169, 42.5112 ], [ 12.8271, 42.5132 ], [ 12.8271, 42.5175 ], [ 12.8182, 42.5213 ], [ 12.818, 42.5329 ], [ 12.8204, 42.5359 ], [ 12.8577, 42.5561 ], [ 12.8717, 42.5611 ], [ 12.8755, 42.5575 ], [ 12.8697, 42.5512 ] ] ] } },
{ "type": "Feature", "properties": { "PRO_COM_T": "057046", "COMUNE": "Nespolo" }, "geometry": { "type": "Polygon", "coordinates": [ [ [ 13.0665, 42.172 ], [ 13.087, 42.1649 ], [ 13.0935, 42.1665 ], [ 13.0935, 42.1607 ], [ 13.0867, 42.15 ], [ 13.0859, 42.1439 ], [ 13.0768, 42.139 ], [ 13.0645, 42.14 ], [ 13.0511, 42.1495 ], [ 13.0571, 42.1592 ], [ 13.0554, 42.1692 ], [ 13.0665, 42.172 ] ] ] } },
{ "type": "Feature", "properties": { "PRO_COM_T": "057047", "COMUNE": "Orvinio" }, "geometry": { "type": "Polygon", "coordinates": [ [ [ 12.932, 42.1487 ], [ 12.9492, 42.14 ], [ 12.9722, 42.1383 ], [ 12.9787, 42.1348 ], [ 12.9801, 42.1315 ], [ 12.9674, 42.1201 ], [ 12.9568, 42.0973 ], [ 12.9486, 42.0893 ], [ 12.9302, 42.1089 ], [ 12.919, 42.115 ], [ 12.9111, 42.1146 ], [ 12.914, 42.1257 ], [ 12.8958, 42.146 ], [ 12.9066, 42.1492 ], [ 12.9103, 42.1574 ], [ 12.9178, 42.1598 ], [ 12.9247, 42.1582 ], [ 12.932, 42.1487 ] ] ] } },
{ "type": "Feature", "properties": { "PRO_COM_T": "057048", "COMUNE": "Paganico Sabino" }, "geometry": { "type": "Polygon", "coordinates": [ [ [ 12.9905, 42.1935 ], [ 13.02, 42.1989 ], [ 13.0216, 42.1896 ], [ 13.0168, 42.1872 ], [ 13.0167, 42.1839 ], [ 13.0229, 42.1699 ], [ 13.0086, 42.1597 ], [ 12.9905, 42.1715 ], [ 12.9871, 42.1773 ], [ 12.9877, 42.1808 ], [ 12.9826, 42.1879 ], [ 12.9905, 42.1935 ] ] ] } },
{ "type": "Feature", "properties": { "PRO_COM_T": "057049", "COMUNE": "Pescorocchiano" }, "geometry": { "type": "Polygon", "coordinates": [ [ [ 13.2426, 42.2689 ], [ 13.2348, 42.2638 ], [ 13.2252, 42.249 ], [ 13.194, 42.23 ], [ 13.199, 42.2167 ], [ 13.197, 42.2139 ], [ 13.1825, 42.2107 ], [ 13.1896, 42.1949 ], [ 13.1829, 42.1892 ], [ 13.1721, 42.1718 ], [ 13.172, 42.1694 ], [ 13.1836, 42.1611 ], [ 13.183, 42.1576 ], [ 13.1764, 42.1525 ], [ 13.1697, 42.1507 ], [ 13.1664, 42.1546 ], [ 13.1199, 42.1767 ], [ 13.0871, 42.1779 ], [ 13.0836, 42.1843 ], [ 13.0694, 42.188 ], [ 13.058, 42.1946 ], [ 13.0563, 42.2269 ], [ 13.0622, 42.2307 ], [ 13.0659, 42.2375 ], [ 13.0653, 42.2412 ], [ 13.0721, 42.248 ], [ 13.0822, 42.2443 ], [ 13.0872, 42.2253 ], [ 13.0964, 42.2278 ], [ 13.1014, 42.2319 ], [ 13.101, 42.2359 ], [ 13.1073, 42.245 ], [ 13.1311, 42.2375 ], [ 13.1395, 42.2316 ], [ 13.1488, 42.2289 ], [ 13.1654, 42.2411 ], [ 13.1692, 42.2514 ], [ 13.1936, 42.2726 ], [ 13.2136, 42.2725 ], [ 13.2346, 42.2779 ], [ 13.2426, 42.2689 ] ] ] } },
{ "type": "Feature", "properties": { "PRO_COM_T": "057050", "COMUNE": "Petrella Salto" }, "geometry": { "type": "Polygon", "coordinates": [ [ [ 13.0789, 42.3601 ], [ 13.0858, 42.3601 ], [ 13.0841, 42.3544 ], [ 13.089, 42.3479 ], [ 13.0927, 42.3458 ], [ 13.1056, 42.3452 ], [ 13.1179, 42.334 ], [ 13.1286, 42.3207 ], [ 13.13, 42.3047 ], [ 13.1269, 42.2936 ], [ 13.1051, 42.2742 ], [ 13.1006, 42.2529 ], [ 13.1022, 42.2485 ], [ 13.1073, 42.245 ], [ 13.101, 42.2359 ], [ 13.1014, 42.2319 ], [ 13.0964, 42.2278 ], [ 13.0879, 42.2254 ], [ 13.0822, 42.2443 ], [ 13.0721, 42.248 ], [ 13.0717, 42.2517 ], [ 13.0649, 42.2513 ], [ 13.0547, 42.2684 ], [ 13.0097, 42.2859 ], [ 12.9956, 42.3021 ], [ 12.9939, 42.319 ], [ 12.9903, 42.3275 ], [ 12.9869, 42.3311 ], [ 12.9799, 42.3315 ], [ 12.9797, 42.334 ], [ 12.9723, 42.3381 ], [ 12.9933, 42.3447 ], [ 12.9988, 42.3416 ], [ 12.9997, 42.3387 ], [ 13.0062, 42.338 ], [ 13.0293, 42.3494 ], [ 13.0532, 42.3673 ], [ 13.0674, 42.372 ], [ 13.0789, 42.3601 ] ] ] } },
{ "type": "Feature", "properties": { "PRO_COM_T": "057051", "COMUNE": "Poggio Bustone" }, "geometry": { "type": "Polygon", "coordinates": [ [ [ 12.9131, 42.5318 ], [ 12.9226, 42.5269 ], [ 12.9287, 42.5186 ], [ 12.9269, 42.5172 ], [ 12.9282, 42.5092 ], [ 12.9218, 42.5016 ], [ 12.9075, 42.4939 ], [ 12.9078, 42.4902 ], [ 12.843, 42.4761 ], [ 12.836, 42.4791 ], [ 12.8583, 42.4945 ], [ 12.8649, 42.5017 ], [ 12.8699, 42.5093 ], [ 12.8679, 42.5158 ], [ 12.875, 42.5236 ], [ 12.8813, 42.5256 ], [ 12.9019, 42.5227 ], [ 12.9064, 42.5302 ], [ 12.9131, 42.5318 ] ] ] } },
{ "type": "Feature", "properties": { "PRO_COM_T": "057052", "COMUNE": "Poggio Catino" }, "geometry": { "type": "Polygon", "coordinates": [ [ [ 12.7159, 42.3075 ], [ 12.7219, 42.3049 ], [ 12.7179, 42.299 ], [ 12.7195, 42.296 ], [ 12.7049, 42.2833 ], [ 12.6803, 42.2767 ], [ 12.6546, 42.2809 ], [ 12.6405, 42.2731 ], [ 12.6384, 42.2829 ], [ 12.6529, 42.2845 ], [ 12.6662, 42.3021 ], [ 12.6732, 42.3057 ], [ 12.6883, 42.3096 ], [ 12.7159, 42.3075 ] ] ] } },
{ "type": "Feature", "properties": { "PRO_COM_T": "057053", "COMUNE": "Poggio Mirteto" }, "geometry": { "type": "MultiPolygon", "coordinates": [ [ [ [ 12.7139, 42.2455 ], [ 12.7075, 42.252 ], [ 12.7111, 42.2542 ], [ 12.7127, 42.2612 ], [ 12.723, 42.2723 ], [ 12.7238, 42.2824 ], [ 12.7343, 42.2799 ], [ 12.7246, 42.2528 ], [ 12.7199, 42.2475 ], [ 12.7139, 42.2455 ] ] ], [ [ [ 12.7223, 42.2851 ], [ 12.7144, 42.2774 ], [ 12.6874, 42.2605 ], [ 12.6776, 42.2557 ], [ 12.6714, 42.2562 ], [ 12.6536, 42.2388 ], [ 12.6394, 42.237 ], [ 12.6341, 42.2389 ], [ 12.6325, 42.2444 ], [ 12.608, 42.2589 ], [ 12.6216, 42.2613 ], [ 12.6315, 42.2696 ], [ 12.6546, 42.2809 ], [ 12.6803, 42.2767 ], [ 12.7049, 42.2833 ], [ 12.7195, 42.296 ], [ 12.7223, 42.2851 ] ] ] ] } },
{ "type": "Feature", "properties": { "PRO_COM_T": "057054", "COMUNE": "Poggio Moiano" }, "geometry": { "type": "Polygon", "coordinates": [ [ [ 12.9182, 42.2268 ], [ 12.9214, 42.2076 ], [ 12.9198, 42.1965 ], [ 12.915, 42.1886 ], [ 12.9229, 42.1763 ], [ 12.9218, 42.1738 ], [ 12.903, 42.1702 ], [ 12.8732, 42.1788 ], [ 12.8573, 42.1872 ], [ 12.8376, 42.187 ], [ 12.845, 42.2005 ], [ 12.8344, 42.2064 ], [ 12.8189, 42.2072 ], [ 12.8278, 42.2177 ], [ 12.8279, 42.2216 ], [ 12.8299, 42.2171 ], [ 12.8355, 42.2143 ], [ 12.8643, 42.2085 ], [ 12.8979, 42.2122 ], [ 12.9058, 42.2214 ], [ 12.9182, 42.2268 ] ] ] } },
{ "type": "Feature", "properties": { "PRO_COM_T": "057055", "COMUNE": "Poggio Nativo" }, "geometry": { "type": "Polygon", "coordinates": [ [ [ 12.7657, 42.241 ], [ 12.7667, 42.2368 ], [ 12.772, 42.2369 ], [ 12.7787, 42.2308 ], [ 12.7944, 42.2332 ], [ 12.7982, 42.2317 ], [ 12.8006, 42.224 ], [ 12.8075, 42.22 ], [ 12.8137, 42.2098 ], [ 12.8192, 42.2076 ], [ 12.7996, 42.1963 ], [ 12.8112, 42.1901 ], [ 12.808, 42.1848 ], [ 12.7952, 42.1806 ], [ 12.7814, 42.1954 ], [ 12.7747, 42.2081 ], [ 12.7757, 42.2149 ], [ 12.7629, 42.2234 ], [ 12.7518, 42.2245 ], [ 12.7561, 42.2375 ], [ 12.7543, 42.2419 ], [ 12.7657, 42.241 ] ] ] } },
{ "type": "Feature", "properties": { "PRO_COM_T": "057056", "COMUNE": "Poggio San Lorenzo" }, "geometry": { "type": "Polygon", "coordinates": [ [ [ 12.8609, 42.2664 ], [ 12.8557, 42.249 ], [ 12.8615, 42.2408 ], [ 12.8309, 42.2313 ], [ 12.8207, 42.2308 ], [ 12.8316, 42.2507 ], [ 12.8382, 42.2555 ], [ 12.8459, 42.276 ], [ 12.8514, 42.2746 ], [ 12.8609, 42.2664 ] ] ] } },
{ "type": "Feature", "properties": { "PRO_COM_T": "057057", "COMUNE": "Posta" }, "geometry": { "type": "Polygon", "coordinates": [ [ [ 13.1084, 42.5821 ], [ 13.1251, 42.5657 ], [ 13.1575, 42.5501 ], [ 13.1558, 42.5401 ], [ 13.1398, 42.539 ], [ 13.1113, 42.5295 ], [ 13.104, 42.5248 ], [ 13.1077, 42.5178 ], [ 13.1063, 42.5061 ], [ 13.1124, 42.4958 ], [ 13.1066, 42.4887 ], [ 13.0935, 42.4847 ], [ 13.0944, 42.4697 ], [ 13.0982, 42.4564 ], [ 13.0851, 42.4621 ], [ 13.076, 42.4739 ], [ 13.0628, 42.4779 ], [ 13.0475, 42.4786 ], [ 13.0337, 42.4757 ], [ 13.023, 42.4658 ], [ 13.0142, 42.469 ], [ 13.009, 42.4741 ], [ 13.0132, 42.4862 ], [ 13.012, 42.4912 ], [ 13.0204, 42.5058 ], [ 13.0272, 42.5116 ], [ 13.04, 42.5136 ], [ 13.0459, 42.5222 ], [ 13.0565, 42.5304 ], [ 13.0811, 42.542 ], [ 13.0882, 42.5568 ], [ 13.0954, 42.5636 ], [ 13.0952, 42.577 ], [ 13.1062, 42.5882 ], [ 13.1084, 42.5821 ] ] ] } },
{ "type": "Feature", "properties": { "PRO_COM_T": "057058", "COMUNE": "Pozzaglia Sabina" }, "geometry": { "type": "Polygon", "coordinates": [ [ [ 12.9706, 42.1762 ], [ 12.9692, 42.1736 ], [ 12.9871, 42.1773 ], [ 12.9905, 42.1715 ], [ 13.0086, 42.1597 ], [ 13.0146, 42.1502 ], [ 13.0126, 42.147 ], [ 13.0091, 42.148 ], [ 13.0027, 42.145 ], [ 12.9787, 42.1417 ], [ 12.9933, 42.1291 ], [ 12.9784, 42.1304 ], [ 12.9801, 42.1315 ], [ 12.9787, 42.1348 ], [ 12.9722, 42.1383 ], [ 12.9492, 42.14 ], [ 12.9334, 42.1474 ], [ 12.9226, 42.1592 ], [ 12.9269, 42.1632 ], [ 12.9218, 42.1738 ], [ 12.9229, 42.1763 ], [ 12.9412, 42.1726 ], [ 12.9576, 42.1792 ], [ 12.9706, 42.1762 ] ] ] } },
{ "type": "Feature", "properties": { "PRO_COM_T": "057059", "COMUNE": "Rieti" }, "geometry": { "type": "MultiPolygon", "coordinates": [ [ [ [ 12.8627, 42.481 ], [ 12.8679, 42.4727 ], [ 12.8697, 42.4612 ], [ 12.8684, 42.4562 ], [ 12.8653, 42.4551 ], [ 12.8696, 42.4489 ], [ 12.8931, 42.4502 ], [ 12.8981, 42.446 ], [ 12.9037, 42.4451 ], [ 12.9089, 42.4502 ], [ 12.9171, 42.4667 ], [ 12.935, 42.4768 ], [ 12.9521, 42.4768 ], [ 12.9679, 42.4659 ], [ 12.9897, 42.4674 ], [ 12.9854, 42.46 ], [ 12.9894, 42.4501 ], [ 12.9941, 42.4462 ], [ 12.9891, 42.4384 ], [ 12.9753, 42.4323 ], [ 12.9661, 42.4361 ], [ 12.9586, 42.4353 ], [ 12.9345, 42.4224 ], [ 12.9046, 42.4133 ], [ 12.9043, 42.3995 ], [ 12.8985, 42.392 ], [ 12.9188, 42.3781 ], [ 12.9298, 42.3581 ], [ 12.9616, 42.3525 ], [ 12.9637, 42.3487 ], [ 12.9484, 42.3472 ], [ 12.9257, 42.3546 ], [ 12.9144, 42.3424 ], [ 12.9138, 42.3352 ], [ 12.9011, 42.326 ], [ 12.8971, 42.3271 ], [ 12.8875, 42.3361 ], [ 12.8889, 42.3472 ], [ 12.8844, 42.3568 ], [ 12.8739, 42.3677 ], [ 12.8613, 42.3731 ], [ 12.8627, 42.3618 ], [ 12.8571, 42.3458 ], [ 12.8596, 42.3266 ], [ 12.8475, 42.3103 ], [ 12.8416, 42.3081 ], [ 12.8353, 42.3087 ], [ 12.8291, 42.315 ], [ 12.8375, 42.3237 ], [ 12.8072, 42.3312 ], [ 12.7867, 42.3393 ], [ 12.7733, 42.3405 ], [ 12.7607, 42.3294 ], [ 12.7506, 42.3273 ], [ 12.7264, 42.3368 ], [ 12.7315, 42.3423 ], [ 12.7271, 42.3455 ], [ 12.7241, 42.3443 ], [ 12.7244, 42.3464 ], [ 12.7327, 42.3589 ], [ 12.7448, 42.3587 ], [ 12.7492, 42.3624 ], [ 12.7708, 42.3707 ], [ 12.7716, 42.3759 ], [ 12.781, 42.3886 ], [ 12.8038, 42.4041 ], [ 12.7955, 42.4167 ], [ 12.7966, 42.4298 ], [ 12.7911, 42.4367 ], [ 12.7986, 42.444 ], [ 12.7917, 42.4502 ], [ 12.7882, 42.4589 ], [ 12.7879, 42.4663 ], [ 12.797, 42.4781 ], [ 12.8115, 42.4804 ], [ 12.8271, 42.4739 ], [ 12.836, 42.4791 ], [ 12.843, 42.4761 ], [ 12.8627, 42.481 ] ] ], [ [ [ 12.7458, 42.5079 ], [ 12.7434, 42.4999 ], [ 12.7493, 42.4948 ], [ 12.7507, 42.4796 ], [ 12.7455, 42.471 ], [ 12.7473, 42.4677 ], [ 12.7204, 42.4855 ], [ 12.7111, 42.5008 ], [ 12.7276, 42.5091 ], [ 12.7458, 42.5079 ] ] ] ] } },
{ "type": "Feature", "properties": { "PRO_COM_T": "057060", "COMUNE": "Rivodutri" }, "geometry": { "type": "Polygon", "coordinates": [ [ [ 12.8918, 42.5637 ], [ 12.9021, 42.552 ], [ 12.9155, 42.5458 ], [ 12.9106, 42.5389 ], [ 12.9131, 42.5318 ], [ 12.9064, 42.5302 ], [ 12.9019, 42.5227 ], [ 12.8813, 42.5256 ], [ 12.875, 42.5236 ], [ 12.8679, 42.5158 ], [ 12.8699, 42.5093 ], [ 12.8591, 42.4951 ], [ 12.8301, 42.4742 ], [ 12.8204, 42.4759 ], [ 12.8135, 42.4807 ], [ 12.8147, 42.488 ], [ 12.8191, 42.4922 ], [ 12.8294, 42.4942 ], [ 12.8402, 42.5142 ], [ 12.862, 42.5326 ], [ 12.8681, 42.5491 ], [ 12.8755, 42.5575 ], [ 12.8717, 42.5611 ], [ 12.8918, 42.5637 ] ] ] } },
{ "type": "Feature", "properties": { "PRO_COM_T": "057061", "COMUNE": "Roccantica" }, "geometry": { "type": "Polygon", "coordinates": [ [ [ 12.7241, 42.3443 ], [ 12.731, 42.3443 ], [ 12.7305, 42.3395 ], [ 12.7264, 42.3368 ], [ 12.7345, 42.335 ], [ 12.7332, 42.3305 ], [ 12.7274, 42.3262 ], [ 12.7272, 42.305 ], [ 12.6883, 42.3096 ], [ 12.6792, 42.3082 ], [ 12.6662, 42.3021 ], [ 12.6574, 42.2894 ], [ 12.6567, 42.2968 ], [ 12.6619, 42.3121 ], [ 12.6699, 42.3234 ], [ 12.6822, 42.3272 ], [ 12.6906, 42.3249 ], [ 12.7157, 42.3482 ], [ 12.7241, 42.3443 ] ] ] } },
{ "type": "Feature", "properties": { "PRO_COM_T": "057062", "COMUNE": "Rocca Sinibalda" }, "geometry": { "type": "MultiPolygon", "coordinates": [ [ [ [ 13.0164, 42.2735 ], [ 13.0205, 42.2659 ], [ 13.0223, 42.2528 ], [ 13.0064, 42.2204 ], [ 12.9917, 42.2307 ], [ 12.975, 42.2338 ], [ 12.9793, 42.2427 ], [ 12.9796, 42.2533 ], [ 12.9929, 42.2636 ], [ 12.9926, 42.2675 ], [ 12.9812, 42.2791 ], [ 12.9924, 42.2789 ], [ 13.0025, 42.2839 ], [ 13.0164, 42.2735 ] ] ], [ [ [ 12.917, 42.3166 ], [ 12.9297, 42.3107 ], [ 12.9294, 42.3043 ], [ 12.9229, 42.3018 ], [ 12.9218, 42.2986 ], [ 12.9382, 42.2937 ], [ 12.9421, 42.286 ], [ 12.9395, 42.2816 ], [ 12.9395, 42.2729 ], [ 12.935, 42.2692 ], [ 12.9326, 42.2579 ], [ 12.9352, 42.2563 ], [ 12.9325, 42.2493 ], [ 12.9365, 42.244 ], [ 12.935, 42.2419 ], [ 12.9467, 42.2362 ], [ 12.9607, 42.2417 ], [ 12.9729, 42.2345 ], [ 12.9693, 42.2309 ], [ 12.9516, 42.2231 ], [ 12.9431, 42.2271 ], [ 12.9386, 42.2227 ], [ 12.9266, 42.224 ], [ 12.9149, 42.2269 ], [ 12.9122, 42.2347 ], [ 12.9169, 42.2461 ], [ 12.9144, 42.2508 ], [ 12.8939, 42.2527 ], [ 12.8792, 42.2514 ], [ 12.8789, 42.2554 ], [ 12.8889, 42.2689 ], [ 12.8852, 42.2797 ], [ 12.878, 42.2876 ], [ 12.8871, 42.2912 ], [ 12.8965, 42.2874 ], [ 12.9054, 42.2935 ], [ 12.9102, 42.2985 ], [ 12.9069, 42.307 ], [ 12.9067, 42.316 ], [ 12.917, 42.3166 ] ] ] ] } },
{ "type": "Feature", "properties": { "PRO_COM_T": "057063", "COMUNE": "Salisano" }, "geometry": { "type": "Polygon", "coordinates": [ [ [ 12.7219, 42.3049 ], [ 12.7394, 42.302 ], [ 12.7467, 42.3035 ], [ 12.7558, 42.2896 ], [ 12.7678, 42.2844 ], [ 12.7679, 42.2655 ], [ 12.763, 42.2559 ], [ 12.7179, 42.244 ], [ 12.7246, 42.2528 ], [ 12.7343, 42.2799 ], [ 12.7238, 42.2824 ], [ 12.7179, 42.299 ], [ 12.7219, 42.3049 ] ] ] } },
{ "type": "Feature", "properties": { "PRO_COM_T": "057064", "COMUNE": "Scandriglia" }, "geometry": { "type": "Polygon", "coordinates": [ [ [ 12.8189, 42.2072 ], [ 12.8344, 42.2064 ], [ 12.8457, 42.1998 ], [ 12.8376, 42.187 ], [ 12.8573, 42.1872 ], [ 12.8732, 42.1788 ], [ 12.903, 42.1702 ], [ 12.9164, 42.1738 ], [ 12.9225, 42.173 ], [ 12.9269, 42.1632 ], [ 12.9226, 42.1592 ], [ 12.9103, 42.1574 ], [ 12.9066, 42.1492 ], [ 12.8958, 42.146 ], [ 12.914, 42.1257 ], [ 12.9131, 42.1174 ], [ 12.9033, 42.1091 ], [ 12.9007, 42.1026 ], [ 12.8959, 42.1004 ], [ 12.8856, 42.1005 ], [ 12.8845, 42.1042 ], [ 12.8668, 42.1036 ], [ 12.8601, 42.1216 ], [ 12.8608, 42.126 ], [ 12.8548, 42.1295 ], [ 12.8514, 42.1376 ], [ 12.8483, 42.1384 ], [ 12.8495, 42.1433 ], [ 12.8073, 42.1571 ], [ 12.8005, 42.1567 ], [ 12.7968, 42.1618 ], [ 12.7801, 42.1674 ], [ 12.7791, 42.1707 ], [ 12.7883, 42.173 ], [ 12.7952, 42.1806 ], [ 12.808, 42.1848 ], [ 12.8112, 42.1901 ], [ 12.7996, 42.1963 ], [ 12.8189, 42.2072 ] ] ] } },
{ "type": "Feature", "properties": { "PRO_COM_T": "057065", "COMUNE": "Selci" }, "geometry": { "type": "Polygon", "coordinates": [ [ [ 12.6324, 42.3306 ], [ 12.6344, 42.3246 ], [ 12.6279, 42.302 ], [ 12.6187, 42.2939 ], [ 12.61, 42.2972 ], [ 12.6047, 42.3057 ], [ 12.5989, 42.31 ], [ 12.6001, 42.3127 ], [ 12.6077, 42.3222 ], [ 12.6218, 42.3309 ], [ 12.6272, 42.3331 ], [ 12.6324, 42.3306 ] ] ] } },
{ "type": "Feature", "properties": { "PRO_COM_T": "057066", "COMUNE": "Stimigliano" }, "geometry": { "type": "Polygon", "coordinates": [ [ [ 12.5518, 42.3125 ], [ 12.5728, 42.3135 ], [ 12.5765, 42.3079 ], [ 12.5836, 42.3034 ], [ 12.5848, 42.2866 ], [ 12.5839, 42.2839 ], [ 12.5771, 42.2855 ], [ 12.5738, 42.284 ], [ 12.5762, 42.2746 ], [ 12.5748, 42.2726 ], [ 12.5625, 42.2714 ], [ 12.5585, 42.2734 ], [ 12.5573, 42.2896 ], [ 12.5504, 42.2931 ], [ 12.5339, 42.2948 ], [ 12.5315, 42.2996 ], [ 12.5392, 42.3082 ], [ 12.5518, 42.3125 ] ] ] } },
{ "type": "Feature", "properties": { "PRO_COM_T": "057067", "COMUNE": "Tarano" }, "geometry": { "type": "Polygon", "coordinates": [ [ [ 12.6027, 42.363 ], [ 12.6112, 42.3605 ], [ 12.6137, 42.3526 ], [ 12.6092, 42.3402 ], [ 12.6028, 42.3372 ], [ 12.5973, 42.3246 ], [ 12.5998, 42.3213 ], [ 12.6077, 42.3222 ], [ 12.5989, 42.31 ], [ 12.5728, 42.3135 ], [ 12.5556, 42.3126 ], [ 12.5561, 42.3181 ], [ 12.5669, 42.3242 ], [ 12.57, 42.3413 ], [ 12.5622, 42.3428 ], [ 12.5522, 42.3509 ], [ 12.5419, 42.3552 ], [ 12.547, 42.3573 ], [ 12.5606, 42.3569 ], [ 12.5662, 42.3608 ], [ 12.5704, 42.3571 ], [ 12.5758, 42.3574 ], [ 12.6027, 42.363 ] ] ] } },
{ "type": "Feature", "properties": { "PRO_COM_T": "057068", "COMUNE": "Toffia" }, "geometry": { "type": "Polygon", "coordinates": [ [ [ 12.7629, 42.2234 ], [ 12.7757, 42.2149 ], [ 12.7747, 42.2081 ], [ 12.7852, 42.1899 ], [ 12.7907, 42.1849 ], [ 12.7682, 42.1884 ], [ 12.7562, 42.1828 ], [ 12.7521, 42.1945 ], [ 12.7298, 42.2169 ], [ 12.7534, 42.2249 ], [ 12.7629, 42.2234 ] ] ] } },
{ "type": "Feature", "properties": { "PRO_COM_T": "057069", "COMUNE": "Torricella in Sabina" }, "geometry": { "type": "Polygon", "coordinates": [ [ [ 12.8597, 42.3275 ], [ 12.8695, 42.2991 ], [ 12.8852, 42.2797 ], [ 12.8889, 42.2689 ], [ 12.8789, 42.2554 ], [ 12.8789, 42.2519 ], [ 12.9144, 42.2508 ], [ 12.9169, 42.2461 ], [ 12.9122, 42.2347 ], [ 12.9149, 42.2269 ], [ 12.8848, 42.2426 ], [ 12.871, 42.243 ], [ 12.8615, 42.2408 ], [ 12.8557, 42.249 ], [ 12.8604, 42.2556 ], [ 12.8609, 42.2664 ], [ 12.8478, 42.276 ], [ 12.8414, 42.269 ], [ 12.8369, 42.2812 ], [ 12.8423, 42.2908 ], [ 12.8393, 42.2966 ], [ 12.84, 42.3056 ], [ 12.8475, 42.3103 ], [ 12.8597, 42.3275 ] ] ] } },
{ "type": "Feature", "properties": { "PRO_COM_T": "057070", "COMUNE": "Torri in Sabina" }, "geometry": { "type": "Polygon", "coordinates": [ [ [ 12.6463, 42.37 ], [ 12.6534, 42.3728 ], [ 12.6678, 42.3683 ], [ 12.6687, 42.3651 ], [ 12.6675, 42.3626 ], [ 12.6581, 42.3609 ], [ 12.6536, 42.3569 ], [ 12.6554, 42.3469 ], [ 12.6522, 42.3379 ], [ 12.6443, 42.3312 ], [ 12.6331, 42.3289 ], [ 12.6263, 42.3329 ], [ 12.6077, 42.3222 ], [ 12.5998, 42.3213 ], [ 12.5973, 42.3246 ], [ 12.5999, 42.3312 ], [ 12.6028, 42.3372 ], [ 12.6092, 42.3402 ], [ 12.6138, 42.3553 ], [ 12.6068, 42.3663 ], [ 12.6112, 42.3776 ], [ 12.6109, 42.3874 ], [ 12.6019, 42.3971 ], [ 12.601, 42.4017 ], [ 12.6113, 42.4053 ], [ 12.6163, 42.4105 ], [ 12.6194, 42.4093 ], [ 12.6387, 42.3732 ], [ 12.6463, 42.37 ] ] ] } },
{ "type": "Feature", "properties": { "PRO_COM_T": "057071", "COMUNE": "Turania" }, "geometry": { "type": "Polygon", "coordinates": [ [ [ 13.0104, 42.1481 ], [ 13.0325, 42.1252 ], [ 13.0306, 42.1154 ], [ 13.0167, 42.1166 ], [ 13.0112, 42.1211 ], [ 12.999, 42.1234 ], [ 12.9787, 42.1417 ], [ 13.0027, 42.145 ], [ 13.0104, 42.1481 ] ] ] } },
{ "type": "Feature", "properties": { "PRO_COM_T": "057072", "COMUNE": "Vacone" }, "geometry": { "type": "Polygon", "coordinates": [ [ [ 12.6221, 42.4107 ], [ 12.6273, 42.4053 ], [ 12.6639, 42.3992 ], [ 12.6561, 42.3742 ], [ 12.6475, 42.3699 ], [ 12.6387, 42.3732 ], [ 12.6174, 42.4105 ], [ 12.6061, 42.4035 ], [ 12.6059, 42.4078 ], [ 12.6133, 42.4132 ], [ 12.6221, 42.4107 ] ] ] } },
{ "type": "Feature", "properties": { "PRO_COM_T": "057073", "COMUNE": "Varco Sabino" }, "geometry": { "type": "Polygon", "coordinates": [ [ [ 13.0164, 42.2829 ], [ 13.0547, 42.2684 ], [ 13.0649, 42.2513 ], [ 13.0729, 42.2509 ], [ 13.0721, 42.248 ], [ 13.06, 42.2439 ], [ 13.0511, 42.2349 ], [ 13.0317, 42.2271 ], [ 13.0231, 42.2197 ], [ 13.0233, 42.2068 ], [ 13.0209, 42.2006 ], [ 13.0016, 42.1965 ], [ 12.9983, 42.2006 ], [ 12.9976, 42.2106 ], [ 12.9896, 42.2112 ], [ 12.9915, 42.2168 ], [ 13.0037, 42.2213 ], [ 13.0064, 42.2204 ], [ 13.0216, 42.2507 ], [ 13.0211, 42.2634 ], [ 13.0164, 42.2735 ], [ 13.0025, 42.2839 ], [ 13.0087, 42.2884 ], [ 13.0164, 42.2829 ] ] ] } }
]
}
